{
    "links": {
        "self": "http://www.neowsapp.com/rest/v1/neo/3442849?api_key=iIulBulltgU6a56xZRHN4H3l9WmuAYTsLGpBGhQ2"
    },
    "id": "3442849",
    "neo_reference_id": "3442849",
    "name": "(2008 YD29)",
    "designation": "2008 YD29",
    "nasa_jpl_url": "http://ssd.jpl.nasa.gov/sbdb.cgi?sstr=3442849",
    "absolute_magnitude_h": 22.1,
    "estimated_diameter": {
        "kilometers": {
            "estimated_diameter_min": 0.1010543415,
            "estimated_diameter_max": 0.2259643771
        },
        "meters": {
            "estimated_diameter_min": 101.054341542,
            "estimated_diameter_max": 225.9643771094
        },
        "miles": {
            "estimated_diameter_min": 0.0627922373,
            "estimated_diameter_max": 0.140407711
        },
        "feet": {
            "estimated_diameter_min": 331.5431259047,
            "estimated_diameter_max": 741.3529669956
        }
    },
    "is_potentially_hazardous_asteroid": false,
    "close_approach_data": [
        {
            "close_approach_date": "1996-09-05",
            "close_approach_date_full": "1996-Sep-05 00:03",
            "epoch_date_close_approach": 841881780000,
            "relative_velocity": {
                "kilometers_per_second": "4.9436025943",
                "kilometers_per_hour": "17796.9693393437",
                "miles_per_hour": "11058.344643105"
            },
            "miss_distance": {
                "astronomical": "0.7297078148",
                "lunar": "283.8563399572",
                "kilometers": "109162734.816434476",
                "miles": "67830578.0692327288"
            },
            "orbiting_body": "Juptr"
        },
        {
            "close_approach_date": "2009-01-02",
            "close_approach_date_full": "2009-Jan-02 13:47",
            "epoch_date_close_approach": 1230904020000,
            "relative_velocity": {
                "kilometers_per_second": "8.9287697071",
                "kilometers_per_hour": "32143.5709456505",
                "miles_per_hour": "19972.7649578682"
            },
            "miss_distance": {
                "astronomical": "0.31021818",
                "lunar": "120.67487202",
                "kilometers": "46407978.9632766",
                "miles": "28836580.95775308"
            },
            "orbiting_body": "Earth"
        },
        {
            "close_approach_date": "2020-08-07",
            "close_approach_date_full": "2020-Aug-07 12:11",
            "epoch_date_close_approach": 1596802260000,
            "relative_velocity": {
                "kilometers_per_second": "9.3795848538",
                "kilometers_per_hour": "33766.5054737213",
                "miles_per_hour": "20981.1933594909"
            },
            "miss_distance": {
                "astronomical": "1.8070292678",
                "lunar": "702.9343851742",
                "kilometers": "270327729.490539586",
                "miles": "167973862.0539388468"
            },
            "orbiting_body": "Juptr"
        },
        {
            "close_approach_date": "2056-02-06",
            "close_approach_date_full": "2056-Feb-06 17:24",
            "epoch_date_close_approach": 2717083440000,
            "relative_velocity": {
                "kilometers_per_second": "5.2324623672",
                "kilometers_per_hour": "18836.8645217658",
                "miles_per_hour": "11704.4950690939"
            },
            "miss_distance": {
                "astronomical": "1.0463666341",
                "lunar": "407.0366206649",
                "kilometers": "156534219.700429367",
                "miles": "97265853.8442725846"
            },
            "orbiting_body": "Juptr"
        },
        {
            "close_approach_date": "2079-10-01",
            "close_approach_date_full": "2079-Oct-01 07:09",
            "epoch_date_close_approach": 3463369740000,
            "relative_velocity": {
                "kilometers_per_second": "5.5662906876",
                "kilometers_per_hour": "20038.6464754937",
                "miles_per_hour": "12451.2356391755"
            },
            "miss_distance": {
                "astronomical": "0.8066116332",
                "lunar": "313.7719253148",
                "kilometers": "120667382.243941284",
                "miles": "74979234.4930823592"
            },
            "orbiting_body": "Juptr"
        }
    ],
    "orbital_data": {
        "orbit_id": "13",
        "orbit_determination_date": "2017-04-06 09:01:48",
        "first_observation_date": "2008-12-30",
        "last_observation_date": "2009-01-15",
        "data_arc_in_days": 16,
        "observations_used": 45,
        "orbit_uncertainty": "7",
        "minimum_orbit_intersection": ".267051",
        "jupiter_tisserand_invariant": "2.980",
        "epoch_osculation": "2459000.5",
        "eccentricity": ".571889669950355",
        "semi_major_axis": "2.889398890333697",
        "inclination": "15.40424794622183",
        "ascending_node_longitude": "90.94722016585926",
        "orbital_period": "1793.947293988059",
        "perihelion_distance": "1.236981512585837",
        "perihelion_argument": "21.44901441265548",
        "aphelion_distance": "4.541816268081556",
        "perihelion_time": "2458425.363518608998",
        "mean_anomaly": "115.415393749098",
        "mean_motion": ".2006747919553963",
        "equinox": "J2000",
        "orbit_class": {
            "orbit_class_type": "AMO",
            "orbit_class_description": "Near-Earth asteroid orbits similar to that of 1221 Amor",
            "orbit_class_range": "1.017 AU < q (perihelion) < 1.3 AU"
        }
    },
    "is_sentry_object": false
}